{
  "type": "FeatureCollection",
  "features": [
    {
      "type": "Feature",
      "properties": {
        "norad_id": 64751,
        "name": "PROGRESS-MS 31",
        "group": "stations",
        "lat": 17.691423601367696,
        "lon": 133.16974602486664,
        "alt_km": 417.0493622414324,
        "timestamp": "2025-12-17T13:48:36.302735+00:00",
        "meta_object_name": "PROGRESS-MS 31",
        "meta_object_id": "2025-146A",
        "meta_epoch": "2025-12-17T01:19:48.717408",
        "meta_mean_motion": 15.49629327,
        "meta_eccentricity": 0.00031735,
        "meta_inclination": 51.6309,
        "meta_ra_of_asc_node": 121.1077,
        "meta_arg_of_pericenter": 260.4156,
        "meta_mean_anomaly": 99.6474,
        "meta_ephemeris_type": 0,
        "meta_classification_type": "U",
        "meta_norad_cat_id": 64751,
        "meta_element_set_no": 999,
        "meta_rev_at_epoch": 675,
        "meta_bstar": 0.00014583435,
        "meta_mean_motion_dot": 7.77e-05,
        "meta_mean_motion_ddot": 0,
        "tle_line1": "1 64751U 25146A   25351.05542497  .00007770  00000+0  14583-3 0  9997",
        "tle_line2": "2 64751  51.6309 121.1077 0003173 260.4156  99.6474 15.49629327  6751"
      },
      "geometry": {
        "type": "Point",
        "coordinates": [
          133.16974602486664,
          17.691423601367696
        ]
      }
    },
    {
      "type": "Feature",
      "properties": {
        "norad_id": 64786,
        "name": "TIANZHOU-9",
        "group": "stations",
        "lat": -24.632356241191523,
        "lon": -43.933762551408066,
        "alt_km": 393.4848130672581,
        "timestamp": "2025-12-17T13:48:36.302745+00:00",
        "meta_object_name": "TIANZHOU-9",
        "meta_object_id": "2025-149A",
        "meta_epoch": "2025-12-17T07:49:42.593088",
        "meta_mean_motion": 15.59373916,
        "meta_eccentricity": 0.0007759,
        "meta_inclination": 41.4681,
        "meta_ra_of_asc_node": 348.8601,
        "meta_arg_of_pericenter": 70.4303,
        "meta_mean_anomaly": 289.7373,
        "meta_ephemeris_type": 0,
        "meta_classification_type": "U",
        "meta_norad_cat_id": 64786,
        "meta_element_set_no": 999,
        "meta_rev_at_epoch": 25530,
        "meta_bstar": 0.00025118398,
        "meta_mean_motion_dot": 0.00020139,
        "meta_mean_motion_ddot": 0,
        "tle_line1": "1 64786U 25149A   25351.32618742  .00020139  00000+0  25118-3 0  9995",
        "tle_line2": "2 64786  41.4681 348.8601 0007759  70.4303 289.7373 15.59373916255305"
      },
      "geometry": {
        "type": "Point",
        "coordinates": [
          -43.933762551408066,
          -24.632356241191523
        ]
      }
    },
    {
      "type": "Feature",
      "properties": {
        "norad_id": 65077,
        "name": "CREW DRAGON 11",
        "group": "stations",
        "lat": 17.691424581788432,
        "lon": 133.16974690823005,
        "alt_km": 417.04936212930625,
        "timestamp": "2025-12-17T13:48:36.302755+00:00",
        "meta_object_name": "CREW DRAGON 11",
        "meta_object_id": "2025-166A",
        "meta_epoch": "2025-12-17T01:19:48.717408",
        "meta_mean_motion": 15.49629327,
        "meta_eccentricity": 0.00031735,
        "meta_inclination": 51.6309,
        "meta_ra_of_asc_node": 121.1077,
        "meta_arg_of_pericenter": 260.4156,
        "meta_mean_anomaly": 99.6474,
        "meta_ephemeris_type": 0,
        "meta_classification_type": "U",
        "meta_norad_cat_id": 65077,
        "meta_element_set_no": 999,
        "meta_rev_at_epoch": 214,
        "meta_bstar": 0.00014583435,
        "meta_mean_motion_dot": 7.77e-05,
        "meta_mean_motion_ddot": 0,
        "tle_line1": "1 65077U 25166A   25351.05542497  .00007770  00000+0  14583-3 0  9991",
        "tle_line2": "2 65077  51.6309 121.1077 0003173 260.4156  99.6474 15.49629327  2142"
      },
      "geometry": {
        "type": "Point",
        "coordinates": [
          133.16974690823005,
          17.691424581788432
        ]
      }
    },
    {
      "type": "Feature",
      "properties": {
        "norad_id": 65304,
        "name": "DRAGON CRS-33",
        "group": "stations",
        "lat": 17.691425366125713,
        "lon": 133.1697476149214,
        "alt_km": 417.0493620396064,
        "timestamp": "2025-12-17T13:48:36.302771+00:00",
        "meta_object_name": "DRAGON CRS-33",
        "meta_object_id": "2025-186A",
        "meta_epoch": "2025-12-17T01:19:48.717408",
        "meta_mean_motion": 15.49629327,
        "meta_eccentricity": 0.00031735,
        "meta_inclination": 51.6309,
        "meta_ra_of_asc_node": 121.1077,
        "meta_arg_of_pericenter": 260.4156,
        "meta_mean_anomaly": 99.6474,
        "meta_ephemeris_type": 0,
        "meta_classification_type": "U",
        "meta_norad_cat_id": 65304,
        "meta_element_set_no": 999,
        "meta_rev_at_epoch": 11,
        "meta_bstar": 0.00014583435,
        "meta_mean_motion_dot": 7.77e-05,
        "meta_mean_motion_ddot": 0,
        "tle_line1": "1 65304U 25186A   25351.05542497  .00007770  00000+0  14583-3 0  9996",
        "tle_line2": "2 65304  51.6309 121.1077 0003173 260.4156  99.6474 15.49629327   110"
      },
      "geometry": {
        "type": "Point",
        "coordinates": [
          133.1697476149214,
          17.691425366125713
        ]
      }
    },
    {
      "type": "Feature",
      "properties": {
        "norad_id": 65586,
        "name": "PROGRESS-MS 32",
        "group": "stations",
        "lat": 17.69142580731493,
        "lon": 133.16974801243484,
        "alt_km": 417.04936198914857,
        "timestamp": "2025-12-17T13:48:36.302780+00:00",
        "meta_object_name": "PROGRESS-MS 32",
        "meta_object_id": "2025-204A",
        "meta_epoch": "2025-12-17T01:19:48.717408",
        "meta_mean_motion": 15.49629327,
        "meta_eccentricity": 0.00031735,
        "meta_inclination": 51.6309,
        "meta_ra_of_asc_node": 121.1077,
        "meta_arg_of_pericenter": 260.4156,
        "meta_mean_anomaly": 99.6474,
        "meta_ephemeris_type": 0,
        "meta_classification_type": "U",
        "meta_norad_cat_id": 65586,
        "meta_element_set_no": 999,
        "meta_rev_at_epoch": 27,
        "meta_bstar": 0.00014583435,
        "meta_mean_motion_dot": 7.77e-05,
        "meta_mean_motion_ddot": 0,
        "tle_line1": "1 65586U 25204A   25351.05542497  .00007770  00000+0  14583-3 0  9999",
        "tle_line2": "2 65586  51.6309 121.1077 0003173 260.4156  99.6474 15.49629327   279"
      },
      "geometry": {
        "type": "Point",
        "coordinates": [
          133.16974801243484,
          17.69142580731493
        ]
      }
    },
    {
      "type": "Feature",
      "properties": {
        "norad_id": 65616,
        "name": "CYGNUS NG-23",
        "group": "stations",
        "lat": 17.69142629752543,
        "lon": 133.16974845411667,
        "alt_km": 417.0493619330855,
        "timestamp": "2025-12-17T13:48:36.302790+00:00",
        "meta_object_name": "CYGNUS NG-23",
        "meta_object_id": "2025-208A",
        "meta_epoch": "2025-12-17T01:19:48.717408",
        "meta_mean_motion": 15.49629327,
        "meta_eccentricity": 0.00031735,
        "meta_inclination": 51.6309,
        "meta_ra_of_asc_node": 121.1077,
        "meta_arg_of_pericenter": 260.4156,
        "meta_mean_anomaly": 99.6474,
        "meta_ephemeris_type": 0,
        "meta_classification_type": "U",
        "meta_norad_cat_id": 65616,
        "meta_element_set_no": 999,
        "meta_rev_at_epoch": 22,
        "meta_bstar": 0.00014583435,
        "meta_mean_motion_dot": 7.77e-05,
        "meta_mean_motion_ddot": 0,
        "tle_line1": "1 65616U 25208A   25351.05542497  .00007770  00000+0  14583-3 0  9997",
        "tle_line2": "2 65616  51.6309 121.1077 0003173 260.4156  99.6474 15.49629327   228"
      },
      "geometry": {
        "type": "Point",
        "coordinates": [
          133.16974845411667,
          17.69142629752543
        ]
      }
    },
    {
      "type": "Feature",
      "properties": {
        "norad_id": 65729,
        "name": "DRAGONFLY",
        "group": "stations",
        "lat": 33.579658664191115,
        "lon": 142.7118220324938,
        "alt_km": 345.16968808766524,
        "timestamp": "2025-12-17T13:48:36.302800+00:00",
        "meta_object_name": "DRAGONFLY",
        "meta_object_id": "1998-067XH",
        "meta_epoch": "2025-12-16T13:13:48.986688",
        "meta_mean_motion": 15.7319978,
        "meta_eccentricity": 0.00071179,
        "meta_inclination": 51.6242,
        "meta_ra_of_asc_node": 116.2265,
        "meta_arg_of_pericenter": 302.756,
        "meta_mean_anomaly": 57.2752,
        "meta_ephemeris_type": 0,
        "meta_classification_type": "U",
        "meta_norad_cat_id": 65729,
        "meta_element_set_no": 999,
        "meta_rev_at_epoch": 1376,
        "meta_bstar": 0.0010910742,
        "meta_mean_motion_dot": 0.00155828,
        "meta_mean_motion_ddot": 0,
        "tle_line1": "1 65729U 98067XH  25350.55126142  .00155828  00000+0  10911-2 0  9992",
        "tle_line2": "2 65729  51.6242 116.2265 0007117 302.7560  57.2752 15.73199780 13768"
      },
      "geometry": {
        "type": "Point",
        "coordinates": [
          142.7118220324938,
          33.579658664191115
        ]
      }
    }
  ]
}